

*******************************************************************************
Ephemeris / WWW_USER Tue Mar 12 08:34:58 2024 Pasadena, USA      / Horizons
*******************************************************************************
Target body name: Moon (301)                      {source: DE441}
Center body name: Earth (399)                     {source: DE441}
Center-site name: BODY CENTER
*******************************************************************************
Start time      : A.D. 1995-Dec-02 00:02:00.0000 TDB
Stop  time      : A.D. 2005-Jan-01 00:00:00.0000 TDB
Step-size       : 1440 minutes
*******************************************************************************
Center geodetic : 0.0, 0.0, 0.0                   {E-lon(deg),Lat(deg),Alt(km)}
Center cylindric: 0.0, 0.0, 0.0                   {E-lon(deg),Dxy(km),Dz(km)}
Center radii    : 6378.137, 6378.137, 6356.752 km {Equator_a, b, pole_c}
Output units    : KM-S
Calendar mode   : Mixed Julian/Gregorian
Output type     : GEOMETRIC cartesian states
Output format   : 2 (position and velocity)
EOP file        : eop.240311.p240604
EOP coverage    : DATA-BASED 1962-JAN-20 TO 2024-MAR-11. PREDICTS-> 2024-JUN-03
Reference frame : Ecliptic of J2000.0
*******************************************************************************
            JDTDB,            Calendar Date (TDB),                      X,                      Y,                      Z,                     VX,                     VY,                     VZ,
**************************************************************************************************************************************************************************************************
$$SOE
2453161.501388889, A.D. 2004-Jun-05 00:02:00.0000,  6.569492698361288E+04, -3.520697897044600E+05, -2.813183296380854E+04,  1.079512632513491E+00,  1.737842975393429E-01, -5.216318165511272E-02,
2453162.501388889, A.D. 2004-Jun-06 00:02:00.0000,  1.558196604693154E+05, -3.260137440716521E+05, -3.168542863463327E+04,  9.959317102345504E-01,  4.249779035858224E-01, -2.976174730676201E-02,
2453163.501388889, A.D. 2004-Jun-07 00:02:00.0000,  2.360978744856435E+05, -2.796248580508859E+05, -3.324319370305295E+04,  8.536657009029925E-01,  6.419392205946250E-01, -6.262767011105785E-03,
2453164.501388889, A.D. 2004-Jun-08 00:02:00.0000,  3.020449770242006E+05, -2.164295528442501E+05, -3.278489289335131E+04,  6.667157272798222E-01,  8.124634158132600E-01,  1.664782205601617E-02,
2453165.501388889, A.D. 2004-Jun-09 00:02:00.0000,  3.504627658847864E+05, -1.407630867818399E+05, -3.042338213415656E+04,  4.504494366379259E-01,  9.299550797252154E-01,  3.759419591807972E-02,
2453166.501388889, A.D. 2004-Jun-10 00:02:00.0000,  3.794643718674982E+05, -5.731801100080278E+04, -2.637455225916198E+04,  2.196004345144368E-01,  9.925358897758918E-01,  5.556816443279061E-02,
2453167.501388889, A.D. 2004-Jun-11 00:02:00.0000,  3.883672233464153E+05,  2.920794872245644E+04, -2.092629292598090E+04, -1.279285751222652E-02,  1.001746469890741E+00,  6.990243825667669E-02,
2453168.501388889, A.D. 2004-Jun-12 00:02:00.0000,  3.775287027644746E+05,  1.143541638594813E+05, -1.441165838708222E+04, -2.357039024625203E-01,  9.613623924712509E-01,  8.020735736625667E-02,
2453169.501388889, A.D. 2004-Jun-13 00:02:00.0000,  3.481748325982818E+05,  1.940508515852166E+05, -7.187763706642239E+03, -4.400159071025913E-01,  8.765440226093372E-01,  8.630572220182070E-02,
2453170.501388889, A.D. 2004-Jun-14 00:02:00.0000,  3.022456824959355E+05,  2.647144943149518E+05,  3.802622622570198E+02, -6.182735563224716E-01,  7.533262049851619E-01,  8.818237688218838E-02,
2453171.501388889, A.D. 2004-Jun-15 00:02:00.0000,  2.422622444681993E+05,  3.233106924699947E+05,  7.931760560692026E+03, -7.644528304914430E-01,  5.983561872891506E-01,  8.595195548482379E-02,
2453172.501388889, A.D. 2004-Jun-16 00:02:00.0000,  1.712096747211519E+05,  3.674010882636255E+05,  1.512090849098584E+04, -8.738174339414988E-01,  4.187695770142973E-01,  7.984122120126086E-02,
2453173.501388889, A.D. 2004-Jun-17 00:02:00.0000,  9.242887013195215E+04,  3.951821778009183E+05,  2.162597741433510E+04, -9.428665872456889E-01,  2.221142594866181E-01,  7.018004229216623E-02,
2453174.501388889, A.D. 2004-Jun-18 00:02:00.0000,  9.509591409714374E+03,  4.055174722720672E+05,  2.715797726140468E+04, -9.693451189441009E-01,  1.626619139976682E-02,  5.739541016576136E-02,
2453175.501388889, A.D. 2004-Jun-19 00:02:00.0000, -7.381856328155020E+04,  3.979611553963430E+05,  3.146877191751517E+04, -9.522768481372603E-01, -1.906841309417461E-01,  4.200474338568597E-02,
2453176.501388889, A.D. 2004-Jun-20 00:02:00.0000, -1.537979065125680E+05,  3.727708335249861E+05,  3.435852858323191E+04, -8.919905150386358E-01, -3.905677690455305E-01,  2.460714882078864E-02,
2453177.501388889, A.D. 2004-Jun-21 00:02:00.0000, -2.267558633573670E+05,  3.309083232892088E+05,  3.568235014729340E+04, -7.901277984780815E-01, -5.752740719156136E-01,  5.873548692875707E-03,
2453178.501388889, A.D. 2004-Jun-22 00:02:00.0000, -2.892185123518686E+05,  2.740293877501151E+05,  3.535608452189478E+04, -6.496474048613819E-01, -7.368673219353996E-01, -1.346208291248807E-02,
2453179.501388889, A.D. 2004-Jun-23 00:02:00.0000, -3.380254780146490E+05,  2.044644654529391E+05,  3.336150624242191E+04, -4.748589612885362E-01, -8.676803507125191E-01, -3.260822400207075E-02,
2453180.501388889, A.D. 2004-Jun-24 00:02:00.0000, -3.704505124611657E+05,  1.251914296016785E+05,  2.975118736998432E+04, -2.715271404169217E-01, -9.604131580257129E-01, -5.071766618710105E-02,
2453181.501388889, A.D. 2004-Jun-25 00:02:00.0000, -3.843351755422245E+05,  3.979736817894391E+04,  2.465327091171085E+04, -4.707268771185564E-02, -1.008302724199663E+00, -6.688878703931628E-02,
2453182.501388889, A.D. 2004-Jun-26 00:02:00.0000, -3.782437553989787E+05, -4.758095849435012E+04,  1.827589456573817E+04,  1.891446852973696E-01, -1.005466134687496E+00, -8.017415178872234E-02,
2453183.501388889, A.D. 2004-Jun-27 00:02:00.0000, -3.516432207616313E+05, -1.323580878067698E+05,  1.091009052097701E+04,  4.255534716889804E-01, -9.475354279035647E-01, -8.960984424768176E-02,
2453184.501388889, A.D. 2004-Jun-28 00:02:00.0000, -3.050994598371189E+05, -2.096715700206926E+05,  2.928640878048027E+03,  6.483102035909003E-01, -8.326666322789360E-01, -9.428267000212365E-02,
2453185.501388889, A.D. 2004-Jun-29 00:02:00.0000, -2.404585019205705E+05, -2.746559271546298E+05, -5.223053720777039E+03,  8.417660433851687E-01, -6.628707460918295E-01, -9.344928339801625E-02,
2453186.501388889, A.D. 2004-Jun-30 00:02:00.0000, -1.609523204646749E+05, -3.228354298229679E+05, -1.304863450385472E+04,  9.897926007787651E-01, -4.453540338331104E-01, -8.670420033419401E-02,
2453187.501388889, A.D. 2004-Jul-01 00:02:00.0000, -7.114734640849462E+04, -3.506115124404578E+05, -2.003788826609668E+04,  1.078080841123527E+00, -1.932436256266231E-01, -7.415966374582356E-02,
2453188.501388889, A.D. 2004-Jul-02 00:02:00.0000,  2.333534991534303E+04, -3.557591282124292E+05, -2.571731487656737E+04,  1.097005131821233E+00,  7.504068489819747E-02, -5.656290984814511E-02,
2453189.501388889, A.D. 2004-Jul-03 00:02:00.0000,  1.163370368558458E+05, -3.377949098136000E+05, -2.970509160512684E+04,  1.044046759787715E+00,  3.381210295924421E-01, -3.526960601384849E-02,
2453190.501388889, A.D. 2004-Jul-04 00:02:00.0000,  2.018259429008446E+05, -2.980851287033912E+05, -3.175618143279238E+04,  9.246272877888433E-01,  5.751834070905466E-01, -1.204480632753921E-02,
2453191.501388889, A.D. 2004-Jul-05 00:02:00.0000,  2.745435754735964E+05, -2.396433016658670E+05, -3.178472523036318E+04,  7.508588979963720E-01,  7.693961116317820E-01,  1.124644681982095E-02,
2453192.501388889, A.D. 2004-Jul-06 00:02:00.0000,  3.304706000067926E+05, -1.666848309322114E+05, -2.985926066294766E+04,  5.387922851928273E-01,  9.099566888977201E-01,  3.293779008838021E-02,
2453193.501388889, A.D. 2004-Jul-07 00:02:00.0000,  3.670337547869043E+05, -8.408383362911976E+04, -2.617644703977004E+04,  3.053860991054770E-01,  9.923203925581171E-01,  5.174924088995742E-02,
2453194.501388889, A.D. 2004-Jul-08 00:02:00.0000,  3.830782871505778E+05,  3.125531903680068E+03, -2.102459365235827E+04,  6.623140190145305E-02,  1.017069852713076E+00,  6.683757588726585E-02,
2453195.501388889, A.D. 2004-Jul-09 00:02:00.0000,  3.786922099417733E+05,  9.012153846461595E+04, -1.474756163845657E+04, -1.655972219857104E-01,  9.882614105147378E-01,  7.774654345920168E-02,
2453196.501388889, A.D. 2004-Jul-10 00:02:00.0000,  3.549744018474141E+05,  1.725272741211780E+05, -7.715213280940559E+03, -3.797526057302273E-01,  9.119179071287453E-01,  8.431417272150976E-02,
2453197.501388889, A.D. 2004-Jul-11 00:02:00.0000,  3.138105283198239E+05,  2.465314067149058E+05, -3.020518569003179E+02, -5.682917899071874E-01,  7.949748251266027E-01,  8.658133070209473E-02,
2453198.501388889, A.D. 2004-Jul-12 00:02:00.0000,  2.576865672458891E+05,  3.089388985105836E+05,  7.127146516774184E+03, -7.251779741478603E-01,  6.447003844229421E-01,  8.472323839705009E-02,
2453199.501388889, A.D. 2004-Jul-13 00:02:00.0000,  1.895443672239658E+05,  3.571881082687318E+05,  1.422698077090336E+04, -8.458314795598817E-01,  4.684732278924836E-01,  7.900846618663304E-02,
2453200.501388889, A.D. 2004-Jul-14 00:02:00.0000,  1.126698965655436E+05,  3.893588443266553E+05,  2.067857317121449E+04, -9.268309249587809E-01,  2.737718077380720E-01,  6.978093979167953E-02,
2453201.501388889, A.D. 2004-Jul-15 00:02:00.0000,  3.059987614805672E+04,  4.041839892781461E+05,  2.619588508329474E+04, -9.657853301902466E-01,  6.824933340339104E-02,  5.745731568321731E-02,
2453202.501388889, A.D. 2004-Jul-16 00:02:00.0000, -5.296714878899636E+04,  4.010678371099380E+05,  3.053218474277545E+04, -9.613527853787157E-01, -1.401983484307481E-01,  4.253188352023281E-02,
